ONEWEB-0415             
1 51624U 22012C   24183.92170195 -.00000185  00000+0 -56522-3 0  9995
2 51624  87.8932 178.5074 0001694  82.9206 277.2114 13.10369686115617
ONEWEB-0416             
1 51625U 22012D   24184.54417718 -.00000523  00000+0 -15336-2 0  9993
2 51625  87.8941 178.3799 0002024  89.2561 270.8799 13.10373322117029
ONEWEB-0422             
1 51626U 22012E   24184.13596035  .00000031  00000+0  46829-4 0  9994
2 51626  87.9175 148.2079 0002740  73.6847 286.4586 13.17649141120928
ONEWEB-0423             
1 51627U 22012F   24183.90170027  .00000165  00000+0  39270-3 0  9997
2 51627  87.9179 148.2555 0002228  84.7353 275.4033 13.17649492119504
ONEWEB-0425             
1 51628U 22012G   24184.47777947 -.00000559  00000+0 -16365-2 0  9993
2 51628  87.8941 178.3760 0002222  97.2119 262.9261 13.10373689117019
ONEWEB-0428             
1 51629U 22012H   24183.92336150 -.00000253  00000+0 -76167-3 0  9998
2 51629  87.8936 178.5014 0002062  79.1251 281.0108 13.10369717115619
ONEWEB-0431             
1 51630U 22012J   24183.89336018  .00000653  00000+0  18342-2 0  9991
2 51630  87.8935 178.5032 0001880  66.3337 293.7987 13.10373938115660
ONEWEB-0434             
1 51631U 22012K   24183.94659490 -.00000428  00000+0 -12623-2 0  9998
2 51631  87.8944 178.5085 0002194  85.3222 274.8155 13.10374192115651
